OBJECT_NAME,OBJECT_ID,EPOCH,MEAN_MOTION,ECCENTRICITY,INCLINATION,RA_OF_ASC_NODE,ARG_OF_PERICENTER,MEAN_ANOMALY,EPHEMERIS_TYPE,CLASSIFICATION_TYPE,NORAD_CAT_ID,ELEMENT_SET_NO,REV_AT_EPOCH,BSTAR,MEAN_MOTION_DOT,MEAN_MOTION_DDOT
STARLINK-38067,2026-150J,2026-07-19T12:54:54.699840,15.75207568,.00007107,97.2837,39.0947,125.8904,234.2427,0,U,69747,999,400,.83611613E-3,.126541E-2,0
STARLINK-37988,2026-150K,2026-07-19T12:52:22.274688,15.75206161,.00008222,97.2845,39.0968,62.1749,297.9599,0,U,69748,999,400,.10136251E-2,.15392E-2,0
STARLINK-37987,2026-150L,2026-07-19T12:46:16.251456,15.75191474,.00004519,97.2830,39.1027,138.9172,221.2127,0,U,69749,999,400,.50307975E-3,.75577E-3,0
STARLINK-38037,2026-150M,2026-07-19T01:26:59.435232,15.80816640,.00019856,97.2848,38.6752,76.0288,284.1201,0,U,69750,999,393,.10371471E-2,.203229E-2,0
STARLINK-38049,2026-150N,2026-07-19T12:03:35.719200,15.80873888,.00011107,97.2842,39.1450,115.4415,244.6969,0,U,69751,999,400,.93965963E-3,.184183E-2,0
STARLINK-38029,2026-150P,2026-07-19T12:22:23.306592,15.75200591,.0001124,97.2847,39.1273,96.4282,263.7111,0,U,69752,999,400,.94140016E-3,.142721E-2,0
STARLINK-37965,2026-150Q,2026-07-19T12:32:02.654880,15.75197657,.00008189,97.2848,39.1171,76.9385,283.1971,0,U,69753,999,400,.88218817E-3,.133574E-2,0
STARLINK-38048,2026-150R,2026-07-19T11:54:46.880352,15.80933272,.00014455,97.2837,39.1534,106.5557,253.5871,0,U,69754,999,400,.14353482E-2,.28551E-2,0
STARLINK-38006,2026-150S,2026-07-19T12:18:49.720608,15.75193056,.00004111,97.2847,39.1308,29.6438,330.4851,0,U,69755,999,400,.655744E-3,.98829E-3,0
STARLINK-38036,2026-150T,2026-07-19T14:00:01.999872,15.75130527,.00011047,97.2850,39.2228,81.8257,354.5659,0,U,69756,999,400,-.11651119E-3,-.17427E-3,0
STARLINK-38058,2026-150U,2026-07-19T14:00:01.999872,15.75262832,.00015448,97.2849,39.2481,96.3578,38.0006,0,U,69757,999,400,-.10680913E-2,-.157051E-2,0
STARLINK-38066,2026-150V,2026-07-19T00:00:00.999648,15.80043025,.00016054,97.2847,38.6399,95.0237,347.5572,0,U,69758,999,390,-.11660207E-1,-.1886094E-1,0
STARLINK-38035,2026-150W,2026-07-19T11:45:18.316512,15.81935026,.00280893,97.2850,39.1639,262.4720,97.3357,0,U,69759,999,400,.13257291E-3,.2745E-3,0
STARLINK-38056,2026-150X,2026-07-19T11:43:08.829696,15.80934000,.00013164,97.2843,39.1655,94.2154,265.9265,0,U,69760,999,400,.1392725E-2,.276756E-2,0
STARLINK-38069,2026-150Y,2026-07-19T14:00:01.999872,15.75264436,.00008898,97.2855,39.2641,80.6348,89.7295,0,U,69761,999,400,-.1197745E-2,-.175715E-2,0
STARLINK-38019,2026-150Z,2026-07-19T12:17:49.092000,15.75205290,.0000605,97.2840,39.1311,53.0409,307.0911,0,U,69762,999,400,.83723485E-3,.1267E-2,0
KUIPER-00258,2026-151A,2026-07-19T08:51:00.520128,15.34701303,.00110882,51.8677,160.4478,185.2272,174.8600,0,U,69763,999,265,.48363704E-3,.16196E-3,0
KUIPER-00526,2026-151B,2026-07-19T13:01:06.072960,15.37381268,.00058565,51.8774,159.3742,154.2981,205.8298,0,U,69764,999,268,.23396082E-3,.8327E-4,0
KUIPER-00558,2026-151C,2026-07-19T14:00:01.999872,15.31248688,.00069588,51.8788,159.3111,168.1101,350.7554,0,U,69765,999,329,-.10597232E-2,-.32707E-3,0
KUIPER-00569,2026-151D,2026-07-19T00:00:00.999648,15.37536026,.00051062,51.8800,161.9756,149.5744,96.8948,0,U,69766,999,169,-.28959487E-3,-.11214E-3,0
KUIPER-00589,2026-151E,2026-07-19T12:59:49.841376,15.37369502,.00045891,51.8758,159.3693,154.1869,205.9347,0,U,69767,999,268,-.28457308E-3,-.10968E-3,0
KUIPER-00598,2026-151F,2026-07-19T14:00:01.999872,15.34348881,.00084392,51.8647,159.4155,177.4064,285.9895,0,U,69768,999,323,-.72262062E-3,-.2473E-3,0
KUIPER-00604,2026-151G,2026-07-19T09:39:08.582688,15.38304923,.00027079,51.8805,159.9344,118.4354,241.6906,0,U,69769,999,266,.28299843E-3,.10473E-3,0
KUIPER-00609,2026-151H,2026-07-19T12:39:35.296704,15.38700362,.00011958,51.8807,159.2748,63.4388,296.6722,0,U,69770,999,268,.2897216E-3,.10875E-3,0
KUIPER-00611,2026-151J,2026-07-19T09:35:44.205216,15.38514241,.00016925,51.8807,159.9157,118.8141,241.3017,0,U,69771,999,266,.28219479E-3,.10516E-3,0
KUIPER-00612,2026-151K,2026-07-19T12:51:02.549088,15.38008452,.00036443,51.8793,159.3297,120.1060,240.0289,0,U,69772,999,268,.31369293E-3,.1154E-3,0
KUIPER-00614,2026-151L,2026-07-19T14:21:12.183552,15.38213806,.00027147,51.8808,158.9958,134.2049,225.9162,0,U,69773,999,269,.29007231E-3,.10712E-3,0
KUIPER-00615,2026-151M,2026-07-19T06:48:06.999840,15.37284787,.00060306,51.8784,160.6376,161.0575,199.0637,0,U,69774,999,264,.23637798E-3,.839E-4,0
KUIPER-00616,2026-151N,2026-07-19T14:18:21.553920,15.38394445,.00027635,51.8789,158.9869,136.7104,223.4101,0,U,69775,999,269,.32551236E-3,.12145E-3,0
KUIPER-00617,2026-151P,2026-07-19T12:53:14.497440,15.37850928,.00038887,51.8807,159.3374,150.1496,209.9714,0,U,69776,999,268,.29314725E-3,.10701E-3,0
