STARLINK-38067          
1 69747U 26150J   26200.53813310  .00126541  00000+0  83612-3 0  9992
2 69747  97.2837  39.0947 0000710 125.8904 234.2427 15.75207568  4004
STARLINK-37988          
1 69748U 26150K   26200.53636892  .00153920  00000+0  10136-2 0  9992
2 69748  97.2845  39.0968 0000822  62.1749 297.9599 15.75206161  4005
STARLINK-37987          
1 69749U 26150L   26200.53213254  .00075577  00000+0  50308-3 0  9993
2 69749  97.2830  39.1027 0000451 138.9172 221.2127 15.75191474  4004
STARLINK-38037          
1 69750U 26150M   26200.06041013  .00203229  00000+0  10371-2 0  9997
2 69750  97.2848  38.6752 0001985  76.0288 284.1201 15.80816640  3934
STARLINK-38049          
1 69751U 26150N   26200.50249675  .00184183  00000+0  93966-3 0  9990
2 69751  97.2842  39.1450 0001110 115.4415 244.6969 15.80873888  4008
STARLINK-38029          
1 69752U 26150P   26200.51554753  .00142721  00000+0  94140-3 0  9995
2 69752  97.2847  39.1273 0001124  96.4282 263.7111 15.75200591  4002
STARLINK-37965          
1 69753U 26150Q   26200.52225295  .00133574  00000+0  88219-3 0  9999
2 69753  97.2848  39.1171 0000818  76.9385 283.1971 15.75197657  4005
STARLINK-38048          
1 69754U 26150R   26200.49637593  .00285510  00000+0  14353-2 0  9999
2 69754  97.2837  39.1534 0001445 106.5557 253.5871 15.80933272  4002
STARLINK-38006          
1 69755U 26150S   26200.51307547  .00098829  00000+0  65574-3 0  9993
2 69755  97.2847  39.1308 0000411  29.6438 330.4851 15.75193056  4003
STARLINK-38036          
1 69756U 26150T   26200.58335648 -.00017427  00000+0 -11651-3 0  9998
2 69756  97.2850  39.2228 0001104  81.8257 354.5659 15.75130527  4006
STARLINK-38058          
1 69757U 26150U   26200.58335648 -.00157051  00000+0 -10681-2 0  9998
2 69757  97.2849  39.2481 0001544  96.3578  38.0006 15.75262832  4006
STARLINK-38066          
1 69758U 26150V   26200.00001157 -.01886094  00000+0 -11660-1 0  9995
2 69758  97.2847  38.6399 0001605  95.0237 347.5572 15.80043025  3903
STARLINK-38035          
1 69759U 26150W   26200.48979533  .00027450  00000+0  13257-3 0  9996
2 69759  97.2850  39.1639 0028089 262.4720  97.3357 15.81935026  4008
STARLINK-38056          
1 69760U 26150X   26200.48829664  .00276756  00000+0  13927-2 0  9995
2 69760  97.2843  39.1655 0001316  94.2154 265.9265 15.80934000  4007
STARLINK-38069          
1 69761U 26150Y   26200.58335648 -.00175715  00000+0 -11977-2 0  9999
2 69761  97.2855  39.2641 0000889  80.6348  89.7295 15.75264436  4003
STARLINK-38019          
1 69762U 26150Z   26200.51237375  .00126700  00000+0  83723-3 0  9998
2 69762  97.2840  39.1311 0000605  53.0409 307.0911 15.75205290  4003
KUIPER-00258            
1 69763U 26151A   26200.36875602  .00016196  00000+0  48364-3 0  9993
2 69763  51.8677 160.4478 0011088 185.2272 174.8600 15.34701303  2658
KUIPER-00526            
1 69764U 26151B   26200.54243140  .00008327  00000+0  23396-3 0  9995
2 69764  51.8774 159.3742 0005856 154.2981 205.8298 15.37381268  2685
KUIPER-00558            
1 69765U 26151C   26200.58335648 -.00032707  00000+0 -10597-2 0  9994
2 69765  51.8788 159.3111 0006958 168.1101 350.7554 15.31248688  3298
KUIPER-00569            
1 69766U 26151D   26200.00001157 -.00011214  00000+0 -28959-3 0  9999
2 69766  51.8800 161.9756 0005106 149.5744  96.8948 15.37536026  1697
KUIPER-00589            
1 69767U 26151E   26200.54154909 -.00010968  00000+0 -28457-3 0  9991
2 69767  51.8758 159.3693 0004589 154.1869 205.9347 15.37369502  2684
KUIPER-00598            
1 69768U 26151F   26200.58335648 -.00024730  00000+0 -72262-3 0  9992
2 69768  51.8647 159.4155 0008439 177.4064 285.9895 15.34348881  3231
KUIPER-00604            
1 69769U 26151G   26200.40218267  .00010473  00000+0  28300-3 0  9992
2 69769  51.8805 159.9344 0002707 118.4354 241.6906 15.38304923  2663
KUIPER-00609            
1 69770U 26151H   26200.52749186  .00010875  00000+0  28972-3 0  9997
2 69770  51.8807 159.2748 0001195  63.4388 296.6722 15.38700362  2689
KUIPER-00611            
1 69771U 26151J   26200.39981719  .00010516  00000+0  28219-3 0  9999
2 69771  51.8807 159.9157 0001692 118.8141 241.3017 15.38514241  2666
KUIPER-00612            
1 69772U 26151K   26200.53544617  .00011540  00000+0  31369-3 0  9996
2 69772  51.8793 159.3297 0003644 120.1060 240.0289 15.38008452  2686
KUIPER-00614            
1 69773U 26151L   26200.59805768  .00010712  00000+0  29007-3 0  9996
2 69773  51.8808 158.9958 0002714 134.2049 225.9162 15.38213806  2697
KUIPER-00615            
1 69774U 26151M   26200.28341435  .00008390  00000+0  23638-3 0  9992
2 69774  51.8784 160.6376 0006030 161.0575 199.0637 15.37284787  2640
KUIPER-00616            
1 69775U 26151N   26200.59608280  .00012145  00000+0  32551-3 0  9998
2 69775  51.8789 158.9869 0002763 136.7104 223.4101 15.38394445  2696
KUIPER-00617            
1 69776U 26151P   26200.53697335  .00010701  00000+0  29315-3 0  9992
2 69776  51.8807 159.3374 0003888 150.1496 209.9714 15.37850928  2687
